[
    {
        "name": "UFP Barnesville, LLC ",
        "street": "749 Grove Street ",
        "city": "Barnesville",
        "zip": "30204",
        "state": "GA"
    },
    {
        "name": "Pak-Rite",
        "street": "2395 S Burrell St",
        "city": "Milwaukee",
        "zip": "53207",
        "state": "WI"
    },
    {
        "name": "idX Dallas",
        "street": "621 Hall St",
        "city": "Cedar Hill",
        "zip": "75104",
        "state": "TX"
    },
    {
        "name": "North American Container",
        "street": "191 Industrial Drive",
        "city": "Martin",
        "zip": "38237",
        "state": "TN"
    },
    {
        "name": "idX Dayton",
        "street": "2875 Needmore Rd",
        "city": "Dayton",
        "zip": "45414",
        "state": "OH "
    },
    {
        "name": "Pallet USA",
        "street": "5840 State Highway 60",
        "city": "Hartford",
        "zip": "53027",
        "state": "WI"
    },
    {
        "name": "idX Virginia",
        "street": "11032 Tidewater Trail #2043",
        "city": "Fredericksburg",
        "zip": "22408",
        "state": "VA "
    },
    {
        "name": "Wolverine Wood Products",
        "street": "3188 Wilson Drive NW",
        "city": "Grand Rapids",
        "zip": "49534",
        "state": "MI"
    },
    {
        "name": "idX Chicago",
        "street": "208 S Jefferson St #100",
        "city": " Chicago",
        "zip": "60661",
        "state": "IL"
    },
    {
        "name": "idX London",
        "street": "Units 42-44, Pure Offices",
        "city": "Swindon",
        "zip": "SN2 8BW",
        "state": ""
    },
    {
        "name": "UFP Franklinton, LLC ",
        "street": "6863 Hwy 56 East",
        "city": "Franklinton",
        "zip": "27525",
        "state": "NC"
    },
    {
        "name": "Packnet LTD",
        "street": "2950 Lexington Ave. S.",
        "city": "Eagan",
        "zip": "55121",
        "state": "MN"
    },
    {
        "name": "idX China",
        "street": "NO. 2655 Linhu Dadao - Fenhu Economic Development Zone",
        "city": "Wujiang City",
        "zip": "215211 ",
        "state": ""
    },
    {
        "name": "UFP Blanchester, LLC",
        "street": "940 Cherry St",
        "city": "Blanchester",
        "zip": "45107",
        "state": "OH"
    },
    {
        "name": " idX Shanghai",
        "street": "Room 805, 4F,\u00a0May Fair Tower, 83 Fumin Road, Jing An District ",
        "city": "Shanghai",
        "zip": "200040",
        "state": ""
    },
    {
        "name": "TIBASA Universal",
        "street": "Carretera Zona Industrial Poniente no. 405 ",
        "city": "Apaseo el Grande",
        "zip": "CP 38160",
        "state": ""
    },
    {
        "name": "idX Tokyo",
        "street": "Level 15, Cerulean Tower, 26-1 Sakuragaoka-cho, Shibuya-ku",
        "city": "Tokyo",
        "zip": "1508512",
        "state": ""
    },
    {
        "name": "UFP Mexico, LLC",
        "street": "Rubidio y zinc S/N, Ciudad Industrial",
        "city": "Durango",
        "zip": "CP 34208",
        "state": ""
    },
    {
        "name": "idX Toronto",
        "street": "280 Basaltic Rd",
        "city": "Concord",
        "zip": "L4K 1G6",
        "state": "ON"
    },
    {
        "name": "NORPAL S de R L de CV",
        "street": "Jose Lopez Portillo No. 3003 Col.  Nueva Castilla, Escobedo",
        "city": "Nuevo Leon",
        "zip": "CP 66052",
        "state": ""
    },
    {
        "name": "UFP White Bear Lake, LLC ",
        "street": "4141 Hoffman Rd.",
        "city": "White Bear Lake",
        "zip": "55110 ",
        "state": "MN"
    },
    {
        "name": "Integra Packaging Pty. Ltd.",
        "street": "Gate 2 Unit 193/49 Station St",
        "city": "Yeerongpilly",
        "zip": "4105",
        "state": ""
    },
    {
        "name": "UFP Ventures II, Inc. ",
        "street": "1801 E Lessard St",
        "city": "Prairie du Chien",
        "zip": "53821",
        "state": "WI"
    },
    {
        "name": "UBEECO Packaging Solutions",
        "street": "28 Sarah Andrews Close",
        "city": "Erskine Park",
        "zip": "2759",
        "state": ""
    },
    {
        "name": "Robbins Wood Treating ",
        "street": "1003 East 131st Ave",
        "city": "Tampa",
        "zip": "33612 ",
        "state": "FL"
    },
    {
        "name": "UFP Canada, LLC",
        "street": "110 Montee Guay, Saint-Bernard-de-Lacolle, Quebec, Canada J0J 1V0",
        "city": "Lacolle",
        "zip": "J0J 1V0",
        "state": ""
    },
    {
        "name": "Bigs Packaging & Lumber",
        "street": "1343 S Henderson Ave",
        "city": "Dallas",
        "zip": "75223",
        "state": "TX"
    },
    {
        "name": "UFP International",
        "street": "11400 NW 32nd Ave",
        "city": "Miami",
        "zip": "33167",
        "state": "FL"
    },
    {
        "name": "Upshur Forest Products, LLC",
        "street": "5231 Daffodil Rd",
        "city": "Gilmer",
        "zip": "75645",
        "state": " TX "
    },
    {
        "name": "Expert Packaging",
        "street": "Gate 6 Tilburn Rd",
        "city": "Deer Park",
        "zip": "3023 ",
        "state": ""
    },
    {
        "name": "UFP Belchertown, LLC ",
        "street": "155 Bay Road",
        "city": "Belchertown",
        "zip": "01007",
        "state": "MA"
    },
    {
        "name": "UFP Granger, LLC ",
        "street": "50415 Herbert Street",
        "city": "Granger",
        "zip": "46530",
        "state": "IN"
    },
    {
        "name": "UFP Warrens, LLC",
        "street": "610 Railroad Street",
        "city": "Warrens",
        "zip": "54666",
        "state": "WI"
    },
    {
        "name": "UFP Union City, LLC",
        "street": "5200 Highway 138, Suite 200",
        "city": "Union City",
        "zip": "30291",
        "state": "GA"
    },
    {
        "name": "UFP Salisbury, LLC ",
        "street": "358 Woodmill Road",
        "city": "Salisbury",
        "zip": "28147",
        "state": "NC"
    },
    {
        "name": "North American Container",
        "street": "950 Garland Rd",
        "city": "Rowesville",
        "zip": "29133",
        "state": "SC "
    },
    {
        "name": "UFP Schertz, LLC",
        "street": "21700 FM 2252 ",
        "city": "Schertz",
        "zip": "78154 ",
        "state": "TX"
    },
    {
        "name": "UFP Morristown, LLC ",
        "street": "530 West Morris Blvd",
        "city": "Morristown",
        "zip": "37813",
        "state": "TN"
    },
    {
        "name": "UFP Harrisonville, LLC",
        "street": "2600 Precision Drive - P.O. Box 386",
        "city": "Harrisonville",
        "zip": "64701 ",
        "state": "MO"
    },
    {
        "name": "UFP Hillsboro, LLC",
        "street": "54 Lee Roy Jordan Dr.",
        "city": "Hillsboro",
        "zip": "76645",
        "state": "TX"
    },
    {
        "name": "UFP Saginaw, LLC",
        "street": "444 Sansom Blvd",
        "city": "Saginaw",
        "zip": "76179 ",
        "state": "TX"
    },
    {
        "name": "UFP New London, LLC ",
        "street": "174 Random Drive",
        "city": "New London",
        "zip": "28127",
        "state": "NC"
    },
    {
        "name": "UFP Hamilton, LLC",
        "street": "115 Distribution Dr",
        "city": "Hamilton",
        "zip": "45014 ",
        "state": "OH"
    },
    {
        "name": "UFP Grandview, LLC ",
        "street": " 1000 South 3rd Street",
        "city": "Grandview",
        "zip": "76050",
        "state": "TX"
    },
    {
        "name": "Northwest Factory Finishes",
        "street": "8941 Bonner Mill Rd. - P.O. Box 1017 ",
        "city": "Bonner",
        "zip": "59823",
        "state": "MT"
    },
    {
        "name": "UFP Thornton, LLC",
        "street": "26200 Nowell Road",
        "city": "Thornton",
        "zip": "95686",
        "state": "CA"
    },
    {
        "name": "UFP Moultrie, LLC",
        "street": "560 Industrial Drive (31788) - P.O. Box 3068",
        "city": "Moultrie",
        "zip": "31776",
        "state": "GA"
    },
    {
        "name": "Robbins Wood Treating ",
        "street": "175 Old Mail Rd",
        "city": "Rockwell",
        "zip": "28138",
        "state": "NC"
    },
    {
        "name": "North American Container",
        "street": "504 Corinth Rd",
        "city": "Newnan",
        "zip": "30263",
        "state": "GA"
    },
    {
        "name": "North American Container",
        "street": "1811 W Oak Pkwy Suite D",
        "city": "Marietta",
        "zip": "30062",
        "state": "GA"
    },
    {
        "name": "Pacific Northwest Factory Finishes",
        "street": "1361 Avenue F ",
        "city": "White City",
        "zip": "97503 ",
        "state": "OR"
    },
    {
        "name": "Eovations, LLC",
        "street": "5 Meadowcraft Parkway",
        "city": "Selma",
        "zip": "36701 ",
        "state": "AL"
    },
    {
        "name": "UFP Lansing, LLC",
        "street": "2509 Snow Rd.",
        "city": "Lansing",
        "zip": "48917 ",
        "state": "MI"
    },
    {
        "name": "UFP Washington, LLC",
        "street": "51 N Mitchell Dr",
        "city": "Yakima",
        "zip": "98908",
        "state": "WA"
    },
    {
        "name": "UFP Elizabeth City, LLC ",
        "street": "141 Knobbs Creek Drive ",
        "city": "Elizabeth City",
        "zip": "27909 ",
        "state": "NC"
    },
    {
        "name": "UFP Miami, LLC",
        "street": "11400 NW 32nd Avenue - Gratigny Ind. Park 6",
        "city": "Miami",
        "zip": "33167",
        "state": "FL"
    },
    {
        "name": "UFP Stockertown, LLC",
        "street": "200 Commerce Way - P.O . Box 127 ",
        "city": "Stockertown",
        "zip": "18083 ",
        "state": "PA"
    },
    {
        "name": "North American Container",
        "street": "270 Johnson Lake Road SE ",
        "city": "Adairsville",
        "zip": "30103 ",
        "state": "GA"
    },
    {
        "name": "UFP White Pigeon, LLC",
        "street": "68956 US-131",
        "city": "White Pigeon",
        "zip": "49099",
        "state": "MI"
    },
    {
        "name": "UFP Eatonton, LLC ",
        "street": "115 Milledgeville Road",
        "city": "Eatonton",
        "zip": "31024",
        "state": "GA"
    },
    {
        "name": "UFP McMinnville, LLC",
        "street": " 1726 SW Highway 18",
        "city": "McMinnville",
        "zip": "97128",
        "state": "OR"
    },
    {
        "name": "UFP Mid-Atlantic, LLC",
        "street": "147 Locust Level Dr",
        "city": "Locust",
        "zip": "28097",
        "state": "NC"
    },
    {
        "name": "UFP Windsor, LLC",
        "street": "15 East Walnut St",
        "city": "Windsor",
        "zip": "80550",
        "state": "CO"
    },
    {
        "name": "UFP Washington, LLC",
        "street": "4234 Malaga Alcoa Hwy",
        "city": "Magala",
        "zip": "98828",
        "state": "WA"
    },
    {
        "name": "North American Container",
        "street": "950 Garland Rd",
        "city": "Rowesville",
        "zip": "29133",
        "state": "SC"
    },
    {
        "name": "UFP Magna, LLC",
        "street": "3909 S 8000 W",
        "city": "Magna",
        "zip": "84044",
        "state": "UT"
    },
    {
        "name": "UFP Chandler, LLC",
        "street": "6878 W. Chandler Blvd",
        "city": "Chandler",
        "zip": "85226",
        "state": "AZ"
    },
    {
        "name": "Shawnlee Construction, LLC",
        "street": "74A Taunton St",
        "city": "Plainville",
        "zip": "02762",
        "state": "MA "
    },
    {
        "name": "Robbins Wood Treating",
        "street": "7205 Rose Ave",
        "city": "Lockhart",
        "zip": "32810 ",
        "state": "FL"
    },
    {
        "name": "North American Container",
        "street": "Sharon Ind Rd,",
        "city": "Sharon",
        "zip": "38255",
        "state": "TN "
    },
    {
        "name": "UFP Janesville, LLC",
        "street": "1118 U.S. Highway 14 East",
        "city": "Janesville",
        "zip": "53545 ",
        "state": "WI"
    },
    {
        "name": "UFP Mid-Atlantic, LLC ",
        "street": "152 Industrial Park",
        "city": "Pearisburg",
        "zip": "24134",
        "state": "VA"
    },
    {
        "name": "Robbins Wood Treating ",
        "street": "1200 Purina Dr.",
        "city": "Gainesville",
        "zip": "30501 ",
        "state": "GA"
    },
    {
        "name": "Great Northern Lumber",
        "street": "2200 W 127th St",
        "city": "Blue Island",
        "zip": "60406",
        "state": "IL"
    },
    {
        "name": "UFP Mid-Atlantic, LLC ",
        "street": " 9356 Lumber Ln",
        "city": "Ooltewah",
        "zip": "37363",
        "state": "TN"
    },
    {
        "name": "Idaho Western Inc. ",
        "street": "6200 Hunt Ave",
        "city": "Nampa",
        "zip": "83687",
        "state": "ID"
    },
    {
        "name": "UFP New Windsor, LLC ",
        "street": "1000 Tibbetts Lane",
        "city": " New Windsor",
        "zip": " 21776 ",
        "state": "MD"
    },
    {
        "name": "UFP Woodburn, LLC",
        "street": "2895 Progress Way",
        "city": "Woodburn",
        "zip": "97071",
        "state": "OR"
    },
    {
        "name": "Shepardville Construction, LLC",
        "street": "285 Great Hill Rd",
        "city": "Naugatuck",
        "zip": "06770",
        "state": "CT"
    },
    {
        "name": "Quest Design and Fabrication, LLC",
        "street": "16760 Ronald W. Reagan Rd., Apt. 124 ",
        "city": "Leander",
        "zip": "78641",
        "state": "TX "
    },
    {
        "name": "UFP Lafayette, LLC",
        "street": "1201 E. South Boulder Rd",
        "city": "Lafayette",
        "zip": "80026 ",
        "state": "CO"
    },
    {
        "name": "UFP Riverside, LLC",
        "street": "2100 Avalon Street",
        "city": "Riverside",
        "zip": "92509",
        "state": "CA"
    },
    {
        "name": "UFP Kyle, LLC",
        "street": "1400 Bunton Creek Road",
        "city": "San Antonio",
        "zip": "78640",
        "state": "TX"
    },
    {
        "name": "UFP Mid-Atlantic, LLC ",
        "street": "80 Martin Luther King Ave",
        "city": "Jefferson",
        "zip": "30549",
        "state": "GA"
    },
    {
        "name": "UFP Shawnee, LLC",
        "street": "8702 N. Harrison Road",
        "city": "Shawnee",
        "zip": "74804",
        "state": "OK"
    },
    {
        "name": "UFP New York, LLC ",
        "street": "11 Falls Industrial Park Road ",
        "city": "Hudson",
        "zip": "12534 ",
        "state": "NY"
    },
    {
        "name": "Quest Architectural Millwork, LLC",
        "street": "13720 Stafford Rd, , ",
        "city": "Stafford",
        "zip": "77477",
        "state": "TX "
    },
    {
        "name": "UFP Haleyville, LLC ",
        "street": "4215 State Highway 13 North",
        "city": "Haleyville",
        "zip": "35565 ",
        "state": "AL"
    },
    {
        "name": "idX Virginia",
        "street": "13213 Corporate Exchange Dr",
        "city": "Bridgeton",
        "zip": "63044",
        "state": "MO"
    },
    {
        "name": "UFP Gordon, LLC ",
        "street": "PO Box 31, 1 Royer Street",
        "city": "Gordon",
        "zip": "17936",
        "state": "PA"
    },
    {
        "name": "idX North Carolina",
        "street": "234 Springs Rd",
        "city": "Washington",
        "zip": "27889",
        "state": "NC "
    },
    {
        "name": "UFP Folkston, LLC",
        "street": "277 John Harper Ave. ",
        "city": "Folkston",
        "zip": "31537 ",
        "state": "GA"
    },
    {
        "name": "idX Los Angeles",
        "street": "5005 E Philadelphia St",
        "city": "Ontario",
        "zip": "91761",
        "state": "CA"
    },
    {
        "name": "UFP Distribution, LLC",
        "street": "2401 East 13th Ave",
        "city": "Cordele",
        "zip": "31015",
        "state": "GA"
    },
    {
        "name": "UFP Minneota, LLC ",
        "street": "700 E 1st St.",
        "city": "Minneota",
        "zip": "56264",
        "state": "MN"
    },
    {
        "name": "idX Seattle",
        "street": "1601 Industrial Park Way",
        "city": "Puyallup",
        "zip": "98371",
        "state": "WA"
    },
    {
        "name": "idX Bangalore",
        "street": "20/2E Avalahalli, Old Madras Road",
        "city": "Bengaluru",
        "zip": "560049",
        "state": ""
    },
    {
        "name": "UFP Distribution, LLC",
        "street": "2701 Ada Drive",
        "city": "Elkhart",
        "zip": "31015",
        "state": "IN"
    },
    {
        "name": "UFP Mid-Atlantic, LLC",
        "street": "2650 Shoffner Road P.O. Box 2039",
        "city": "Conway",
        "zip": "29526",
        "state": "SC"
    },
    {
        "name": "Bigs Packaging & Lumber",
        "street": "4655 E Shelby Dr",
        "city": "Memphis",
        "zip": "38118",
        "state": "TN "
    },
    {
        "name": "UFP New York, LLC ",
        "street": "11 Allen Street",
        "city": "Auburn",
        "zip": "13021",
        "state": "NY"
    },
    {
        "name": "Custom Caseworks",
        "street": "1012 Industrial Dr. S",
        "city": "Sauk Rapids",
        "zip": "56379",
        "state": "MN"
    },
    {
        "name": "T&R Lumber Co",
        "street": "8685 Etiwanda Ave",
        "city": "Rancho Cucamonga",
        "zip": "91739",
        "state": "CA "
    },
    {
        "name": "United Lumber and Reman, LLC ",
        "street": "980 Ford Road",
        "city": "Muscle Shoals",
        "zip": "35661",
        "state": "AL"
    },
    {
        "name": "UFP Mid-Atlantic, LLC",
        "street": "254 Superior Dr",
        "city": "Clinton",
        "zip": "28328",
        "state": "NC"
    },
    {
        "name": "Quality Hardwood Sales, LLC",
        "street": "493 Shawnee St",
        "city": "Nappanee",
        "zip": "46550",
        "state": "IN"
    },
    {
        "name": "UFP Mid-Atlantic, LLC",
        "street": "3812 Cook Blvd",
        "city": "Chesapeake",
        "zip": "23323",
        "state": "VA"
    },
    {
        "name": "UFP Ashburn, LLC ",
        "street": "154 Sunbelt Drive",
        "city": "Ashburn",
        "zip": "31714",
        "state": "GA"
    },
    {
        "name": "UFP New York, LLC",
        "street": " 13989 E. Schutt Road",
        "city": "Chaffee",
        "zip": "14030",
        "state": "NY"
    },
    {
        "name": "UFP San Antonio, LLC",
        "street": "12195 Crownpoint Dr.",
        "city": "San Antonio",
        "zip": "78233",
        "state": "TX"
    },
    {
        "name": "UFP Mid-Atlantic, LLC ",
        "street": "5631 S. NC Hwy. 62",
        "city": "Burlington",
        "zip": " 27215",
        "state": "NC"
    },
    {
        "name": "UFP Auburndale, LLC",
        "street": "105 Progress Road",
        "city": "Auburndale",
        "zip": "33823",
        "state": "FL"
    },
    {
        "name": "UFP Washington, LLC",
        "street": "12027 Three Lakes Rd",
        "city": "Snohomish",
        "zip": "98290",
        "state": "WA"
    },
    {
        "name": "UFP Berlin, LLC",
        "street": "159 Jackson Road",
        "city": "Berlin",
        "zip": "08009",
        "state": "NJ"
    },
    {
        "name": "UFP New York, LLC",
        "street": "13 Winkler Road",
        "city": "Sidney",
        "zip": "13838",
        "state": "NY"
    },
    {
        "name": "UFP Aurora, LLC ",
        "street": "14700 East 38th Avenue",
        "city": "Aurora",
        "zip": "80011",
        "state": "CO"
    },
    {
        "name": "UFP New Waverly, LLC ",
        "street": "146 FM 2793 Suite B",
        "city": "Huntsville / New Waverly",
        "zip": "77340",
        "state": "TX"
    },
    {
        "name": "UFP Parker, LLC",
        "street": "116 North River Ave., PO Box 310",
        "city": "Parker",
        "zip": "16049",
        "state": "PA"
    },
    {
        "name": "UFP Industries - Corporate Headquarters",
        "street": "2801 E. Beltline Ave, NE",
        "city": "Grand Rapids",
        "zip": "49525",
        "state": "MI"
    },
    {
        "name": "UFP Transportation, Inc,",
        "street": "5200 Highway 138, Suite 200",
        "city": "Union City",
        "zip": "30291",
        "state": "GA"
    },
    {
        "name": "UFP Transportation, Inc.",
        "street": "1000 S. Third Street",
        "city": "Grandview",
        "zip": " 76050",
        "state": "TX"
    },
    {
        "name": "UFP Ranson, LLC ",
        "street": "249 16th Avenue ",
        "city": "Ranson",
        "zip": "25438 ",
        "state": "WV"
    }
]